STARLINK-30410          
1 57841U 23141B   26068.87208601  .00000703  00000+0  35869-4 0  9994
2 57841  53.1598 283.2442 0001393 103.3134 256.8022 15.30191856140351
YAOGAN-43 01D           
1 60461U 24148D   26068.43560480  .00010676  00000+0  37766-3 0  9999
2 60461  35.0010  61.7102 0002556 326.2473  33.8080 15.28369377 87008
